430P/Scotti,e,4.4760,54.6385,94.4774,3.102698,0.1803411,0.50045452,266.1490,12/18.0/2025,2000,g 16.5,4.0
# From MPEC 2025-W75
431P/Scotti,e,22.3749,202.8308,200.0130,3.477444,0.1519896,0.47714883,213.3347,12/18.0/2025,2000,g 14.0,4.0
# From MPEC 2025-W75
432P/PANSTARRS,e,10.0670,239.1309,105.2352,3.038781,0.1860608,0.24073681,292.5758,12/18.0/2025,2000,g 17.0,4.0
# From MPEC 2025-W75
434P/Tenagra,e,6.3365,288.9095,128.4772,4.136855,0.1171382,0.27406931,177.2310,12/18.0/2025,2000,g 13.0,4.0
# From MPEC 2025-W75
435P/PANSTARRS,e,18.8746,98.5236,244.1818,3.022078,0.1876055,0.31747161,301.3494,12/18.0/2025,2000,g 17.0,4.0
# From MPEC 2025-W75
436P/Garradd,e,20.1994,87.1579,282.7681,5.937064,0.0681313,0.66879356,100.2676,12/18.0/2025,2000,g 14.5,4.0
# From MPEC 2025-W75
437P/Lemmon-PANSTARRS,e,3.6886,245.8421,207.1231,4.570230,0.1008781,0.25494295,122.6145,12/18.0/2025,2000,g 13.0,4.0
# From MPEC 2025-W75
438P/Christensen,e,8.2806,260.1094,58.9539,3.853497,0.1302932,0.41408594,271.9134,12/18.0/2025,2000,g 14.5,4.0
# From MPEC 2025-W75
439P/LINEAR,e,7.1121,56.4014,342.1428,3.492200,0.1510273,0.46889736,237.8290,12/18.0/2025,2000,g 13.5,4.0
# From MPEC 2025-W75
440P/Kobayashi,e,12.3547,328.7916,183.3141,8.581377,0.0392074,0.76100449,53.2570,12/18.0/2025,2000,g 15.5,4.0
# From MPEC 2025-W75
441P/PANSTARRS,e,2.5746,143.5866,178.8465,4.131135,0.1173816,0.19443488,11.7066,12/18.0/2025,2000,g 13.5,4.0
# From MPEC 2025-W75
442P/McNaught,e,6.0583,31.8958,310.6093,4.950970,0.0894682,0.53269075,109.0432,12/18.0/2025,2000,g 13.5,4.0
# From MPEC 2025-W75
443P/PANSTARRS-Christensen,e,19.8881,108.9326,145.0360,4.124304,0.1176733,0.28281721,137.2135,12/18.0/2025,2000,g 13.5,4.0
# From MPEC 2025-W75
444P/WISE-PANSTARRS,e,22.6884,88.1969,172.7939,3.479006,0.1518872,0.55492860,193.0172,12/18.0/2025,2000,g 17.0,4.0
# From MPEC 2025-W75
445P/Lemmon-PANSTARRS,e,1.0892,126.5956,213.1004,4.044176,0.1211878,0.41450750,147.8595,12/18.0/2025,2000,g 15.0,4.0
# From MPEC 2025-W75
446P/McNaught,e,16.6451,336.3010,344.6000,4.557383,0.1013050,0.64695658,131.6795,12/18.0/2025,2000,g 16.5,4.0
# From MPEC 2025-W75
447P/Sheppard-Tholen,e,7.4417,302.6388,97.3728,5.623140,0.0739155,0.17696297,90.2760,12/18.0/2025,2000,g 12.0,4.0
# From MPEC 2025-W75
448P/PANSTARRS,e,12.1429,161.7489,218.8067,3.636982,0.1420994,0.41791491,170.4041,12/18.0/2025,2000,g 16.0,4.0
# From MPEC 2025-W75
449P/Leonard,e,15.4682,242.5178,176.7809,3.599583,0.1443197,0.47969255,266.7329,12/18.0/2025,2000,g 16.0,4.0
# From MPEC 2025-XC7
450P/LONEOS,e,10.8912,123.9025,26.1985,7.857110,0.0447517,0.31184575,340.5181,12/18.0/2025,2000,g  6.5,4.0
# From MPEC 2025-W75
451P/Christensen,e,26.4873,300.8624,186.8227,6.352257,0.0615619,0.55930132,68.6940,12/18.0/2025,2000,g 13.5,4.0
# From MPEC 2025-W75
452P/Sheppard-Jewitt,e,6.4224,123.6603,37.1268,7.314006,0.0498277,0.42877208,48.1694,12/18.0/2025,2000,g  9.0,4.0
# From MPEC 2025-W75
453P/WISE-Lemmon,e,27.0538,42.8854,70.9252,5.468863,0.0770652,0.58317333,78.6466,12/18.0/2025,2000,g 14.0,4.0
# From MPEC 2025-W75
454P/PANSTARRS,e,19.8062,54.5867,20.2268,4.212353,0.1140032,0.36126469,141.4006,12/18.0/2025,2000,g 14.0,4.0
# From MPEC 2025-W75
455P/PANSTARRS,e,14.1338,146.1750,237.5363,3.153859,0.1759708,0.30423394,180.7827,12/18.0/2025,2000,g 17.0,4.0
# From MPEC 2025-W75
456P/PANSTARRS,e,16.9649,243.1377,232.9759,3.168615,0.1747431,0.11561965,43.2059,12/18.0/2025,2000,g 13.5,4.0
# From MPEC 2025-W75
457P/Lemmon-PANSTARRS,e,5.2258,175.9637,104.2925,2.645021,0.2291186,0.11829603,111.1362,12/18.0/2025,2000,g 15.5,4.0
# From MPEC 2025-W75
458P/Jahn,e,13.6217,1.5472,104.9760,3.859641,0.1299822,0.31723999,148.7014,12/18.0/2025,2000,g 14.0,4.0
# From MPEC 2025-W75
459P/Catalina,e,7.1729,256.9853,205.2387,3.240512,0.1689599,0.57786585,174.0555,12/18.0/2025,2000,g 15.5,4.0
# From MPEC 2025-W75
460P/PANSTARRS,e,18.9004,180.5175,351.9305,3.027583,0.1870941,0.66429825,308.0631,12/18.0/2025,2000,g 21.0,4.0
# From MPEC 2025-W75
461P/WISE,e,18.3952,194.3720,174.8251,3.144750,0.1767360,0.56942351,271.4341,12/18.0/2025,2000,g 18.5,4.0
# From MPEC 2025-W75
462P/LONEOS-PANSTARRS,e,7.0588,322.6227,4.1360,4.856592,0.0920888,0.57882887,113.7697,12/18.0/2025,2000,g 17.0,4.0
# From MPEC 2025-W75
463P/NEOWISE,e,29.2952,283.2167,216.3448,2.973967,0.1921763,0.82599635,191.0168,12/18.0/2025,2000,g 18.0,4.0
# From MPEC 2025-W75
464P/PANSTARRS,e,21.6738,309.5787,267.4839,4.682980,0.0972569,0.28074434,99.6596,12/18.0/2025,2000,g 10.5,4.0
# From MPEC 2025-W75
465P/Hill,e,25.8620,217.9299,140.9618,6.003473,0.0670039,0.61296130,63.9480,12/18.0/2025,2000,g 12.5,4.0
# From MPEC 2025-W75
466P/PANSTARRS,e,15.8163,115.3468,197.5696,3.946323,0.1257231,0.49057642,120.2971,12/18.0/2025,2000,g 14.0,4.0
# From MPEC 2025-W75
467P/LINEAR-Grauer,e,2.4794,43.2619,267.1774,5.824100,0.0701231,0.05423274,78.6413,12/18.0/2025,2000,g  9.0,4.0
# From MPEC 2025-W75
468P/SidingSpring,e,50.4556,356.1306,322.5526,7.114137,0.0519423,0.44472138,39.3791,12/18.0/2025,2000,g 11.5,4.0
# From MPEC 2025-W75
469P/PANSTARRS,e,20.1708,178.9650,43.4923,4.343743,0.1088699,0.30819870,1.0470,12/18.0/2025,2000,g 13.5,4.0
# From MPEC 2025-W75
470P/PANSTARRS,e,8.8439,246.1605,151.6452,4.461757,0.1045792,0.38922990,76.6083,12/18.0/2025,2000,g 15.5,4.0
# From MPEC 2025-W75
471P/LINEAR-Lemmon,e,4.7970,283.3122,94.7254,5.687727,0.0726601,0.62756092,52.9958,12/18.0/2025,2000,g 12.0,4.0
# From MPEC 2025-W75
472P/NEAT-LINEAR,e,10.8267,205.8056,218.7994,7.762778,0.0455699,0.56378382,23.8042,12/18.0/2025,2000,g 10.5,4.0
# From MPEC 2025-W75
473P/NEAT,e,56.8837,22.1914,42.9476,7.973794,0.0437730,0.82356629,28.9248,12/18.0/2025,2000,g 13.5,4.0
# From MPEC 2025-W75
474P/Hogan,e,1.0968,26.7524,11.2702,3.130949,0.1779058,0.18787866,157.7124,12/18.0/2025,2000,g 15.5,4.0
# From MPEC 2025-W75
475P/Spacewatch-LINEAR,e,14.5241,147.3520,40.4278,7.320955,0.0497568,0.44305567,28.0732,12/18.0/2025,2000,g 11.0,4.0
# From MPEC 2025-W75
476P/PANSTARRS,e,19.0053,57.0490,46.7495,4.774870,0.0944630,0.34579380,40.3810,12/18.0/2025,2000,g 12.5,4.0
# From MPEC 2025-W75
477P/PANSTARRS,e,8.9139,59.1392,305.8548,3.001499,0.1895382,0.41757990,136.9541,12/18.0/2025,2000,g 14.5,4.0
# From MPEC 2025-W75
478P/ATLAS,e,12.5253,127.2587,13.2737,3.648636,0.1414192,0.34381782,84.1045,12/18.0/2025,2000,g 13.5,4.0
# From MPEC 2025-W75
479P/Elenin,e,15.3992,295.8307,263.4955,5.622669,0.0739248,0.77899416,43.7401,12/18.0/2025,2000,g 15.0,4.0
# From MPEC 2025-W75
480P/PANSTARRS,e,13.7153,229.9848,214.4750,4.612027,0.0995099,0.24621164,96.4271,12/18.0/2025,2000,g 12.0,4.0
# From MPEC 2025-W75
481P/Lemmon-PANSTARRS,e,6.0826,93.5502,356.8501,4.682992,0.0972566,0.34338875,86.8088,12/18.0/2025,2000,g 13.5,4.0
# From MPEC 2025-W75
482P/PANSTARRS,e,24.4893,126.0715,339.7495,3.757404,0.1353232,0.49233685,125.8159,12/18.0/2025,2000,g 13.5,4.0
# From MPEC 2025-W75
483P/PANSTARRS,e,14.1737,198.9736,49.6181,3.195015,0.1725817,0.22164513,240.1548,12/18.0/2025,2000,g 16.5,4.0
# From MPC186638
483P-A/PANSTARRS,e,14.1737,198.9736,49.6183,3.195015,0.1725817,0.22164551,240.1544,12/18.0/2025,2000,g 13.5,4.0
# From MPC185666
483P-B/PANSTARRS,e,14.1745,198.9729,49.6091,3.194932,0.1725884,0.22158853,240.1905,12/18.0/2025,2000,g 17.0,4.0
# From MPEC 2025-W75
484P/Spacewatch,e,14.4742,265.3680,240.8338,3.756149,0.1353910,0.43314091,249.8568,12/18.0/2025,2000,g 16.0,4.0
# From MPEC 2025-W75
485P/Sheppard-Tholen,e,10.0159,261.6454,196.1497,6.853064,0.0549385,0.41715650,46.4522,12/18.0/2025,2000,g 13.0,4.0
# From MPEC 2025-XC7
486P/Leonard,e,2.2097,219.0231,93.9355,3.626895,0.1426926,0.36338358,36.8422,12/18.0/2025,2000,g 14.5,4.0
# From MPEC 2025-W75
487P/SidingSpring,e,39.3662,49.2006,0.8383,5.160385,0.0840777,0.64832173,35.6031,12/18.0/2025,2000,g 13.5,4.0
# From MPEC 2025-W75
488P/NEAT-PANSTARRS,e,11.4547,323.5125,2.4542,3.755458,0.1354284,0.55167835,78.0784,12/18.0/2025,2000,g 16.5,4.0
# From MPEC 2024-Q14
489P/Denning,e,4.0259,20.5984,109.4190,4.425188,0.1058782,0.64716789,1.4500,12/18.0/2025,2000,g 15.5,4.0
# From MPEC 2025-W75
490P/ATLAS,e,12.2677,307.5852,332.5892,3.030751,0.1868007,0.64691103,83.2967,12/18.0/2025,2000,g 21.0,4.0
# From MPEC 2025-W75
491P/Spacewatch-PANSTARRS,e,9.3670,311.6834,298.8398,5.012691,0.0878209,0.25869929,41.1214,12/18.0/2025,2000,g  9.5,4.0
# From MPEC 2025-W75
492P/LINEAR,e,11.4010,11.3050,40.9805,5.758015,0.0713337,0.69049242,36.7806,12/18.0/2025,2000,g 15.0,4.0
# From MPEC 2025-XC7
493P/LONEOS,e,24.1078,1.0835,83.2285,7.176727,0.0512642,0.46731072,358.6106,12/18.0/2025,2000,g 12.0,2.0
# From MPEC 2025-W75
494P/PANSTARRS,e,7.7899,245.0437,48.8860,3.794344,0.1333518,0.35666521,75.4869,12/18.0/2025,2000,g 16.0,4.0
# From MPEC 2025-W75
495P/Christensen,e,26.3570,291.6126,141.3332,4.762786,0.0948227,0.27357279,5.3753,12/18.0/2025,2000,g 11.5,4.0
# From MPEC 2025-W75
496P/Hill,e,14.8141,63.5870,42.2530,6.099438,0.0654289,0.73420162,18.4981,12/18.0/2025,2000,g 14.0,4.0
# From MPEC 2025-W75
497P/Spacewatch-PANSTARRS,e,10.4371,40.3596,32.3854,5.610240,0.0741706,0.63018795,22.6791,12/18.0/2025,2000,g 17.5,4.0
# From MPEC 2025-W75
498P/LINEAR,e,14.4827,279.2301,179.0929,4.593060,0.1001269,0.57226334,36.4544,12/18.0/2025,2000,g 14.7,4.0
# From MPEC 2025-W75
499P/Catalina,e,24.5836,139.3040,2.5685,3.018166,0.1879704,0.69149962,54.2474,12/18.0/2025,2000,g 18.5,4.0
# From MPEC 2025-W75
500P/PANSTARRS,e,2.3015,111.5262,46.7098,3.416429,0.1560794,0.37596789,40.7366,12/18.0/2025,2000,g 16.0,4.0
# From MPEC 2025-W75
501P/Rankin,e,10.0475,139.7840,53.6849,2.227849,0.2963982,0.69857423,181.5922,12/18.0/2025,2000,g 21.5,4.0
# From MPEC 2025-XC7
502P/NEAT,e,11.3992,264.4825,37.7246,7.995096,0.0435982,0.47099599,5.8881,12/18.0/2025,2000,g  8.5,4.0
# From MPEC 2025-W75
503P/PANSTARRS,e,10.5747,268.5816,17.9420,3.658035,0.1408745,0.48131596,5.9807,12/18.0/2025,2000,g 15.0,4.0
# From MPEC 2025-W75
504P/WISE-PANSTARRS,e,8.8062,221.1194,308.5398,3.745138,0.1359886,0.40612114,34.3945,12/18.0/2025,2000,g 14.3,4.0
# From MPEC 2025-W75
